sat02378
1 02378U 63014Y   20044.32762972 -.00000018  00000-0 -86234-2 0  9998
2 02378  87.3101  20.3946 0400331 247.5366 108.2635  8.66834268795108
